NORAD_CAT_ID,OBJECT_NAME,OBJECT_TYPE,EPOCH,MEAN_MOTION,ECCENTRICITY,INCLINATION,RA_OF_ASC_NODE,ARG_OF_PERICENTER,MEAN_ANOMALY,BSTAR,MEAN_MOTION_DOT,MEAN_MOTION_DDOT,TLE_LINE0,TLE_LINE1,TLE_LINE2,SEMIMAJOR_AXIS,PERIOD,APOGEE,PERIGEE,DECAYED
55920.0,STARLINK-5862,PAYLOAD,2024-02-01 11:20:51,14.98324176,0.0002809,69.9994,59.0792,268.1879,91.8958,1.7051e-05,1.1e-06,0.0,0 STARLINK-5862,1 55920U 23037G   24032.47281803  .00000110  00000-0  17051-4 0  9990,2 55920  69.9994  59.0792 0002809 268.1879  91.8958 14.98324176 49054,6950.211,96.107,574.028,570.124,0.0
55920.0,STARLINK-5862,PAYLOAD,2024-02-02 03:22:11,14.98332355,0.0002855,69.999,57.3945,265.8399,94.2433,2.6258e-05,2.2e-06,0.0,0 STARLINK-5862,1 55920U 23037G   24033.14041224  .00000220  00000-0  26258-4 0  9997,2 55920  69.9990  57.3945 0002855 265.8399  94.2433 14.98332355 49494,6950.186,96.107,574.035,570.066,0.0
55920.0,STARLINK-5862,PAYLOAD,2024-02-02 11:22:51,14.98334942,0.0002812,69.9994,56.5538,269.1142,90.9694,4.1217e-05,3.99e-06,0.0,0 STARLINK-5862,1 55920U 23037G   24033.47420970  .00000399  00000-0  41217-4 0  9991,2 55920  69.9994  56.5538 0002812 269.1142  90.9694 14.98334942 49208,6950.178,96.107,573.997,570.088,0.0
55920.0,STARLINK-5862,PAYLOAD,2024-02-03 03:24:12,14.98327206,0.0002754,69.9996,54.872,265.2038,94.8807,2.4637e-05,2.01e-06,0.0,0 STARLINK-5862,1 55920U 23037G   24034.14181435  .00000201  00000-0  24637-4 0  9995,2 55920  69.9996  54.8720 0002754 265.2038  94.8807 14.98327206 49642,6950.202,96.107,573.981,570.152,0.0
55920.0,STARLINK-5862,PAYLOAD,2024-02-03 11:24:53,14.98325513,0.0002788,69.9995,54.03,265.9903,94.0937,4.956e-07,-8.7e-07,0.0,0 STARLINK-5862,1 55920U 23037G   24034.47561668 -.00000087  00000-0  49560-6 0  9998,2 55920  69.9995  54.0300 0002788 265.9903  94.0937 14.98325513 49355,6950.207,96.107,574.009,570.134,0.0
55920.0,STARLINK-5862,PAYLOAD,2024-02-04 03:26:13,14.98335001,0.0002821,69.9994,52.3466,267.7576,92.326,-7.827e-06,-1.86e-06,0.0,0 STARLINK-5862,1 55920U 23037G   24035.14321033 -.00000186  00000-0 -78270-5 0  9993,2 55920  69.9994  52.3466 0002821 267.7576  92.3260 14.98335001 49793,6950.177,96.107,574.003,570.082,0.0
55920.0,STARLINK-5862,PAYLOAD,2024-02-04 11:26:53,14.98336147,0.0002795,69.9995,51.5051,267.1258,92.9582,9.2945e-06,1.8e-07,0.0,0 STARLINK-5862,1 55920U 23037G   24035.47700803  .00000018  00000-0  92945-5 0  9992,2 55920  69.9995  51.5051 0002795 267.1258  92.9582 14.98336147 49500,6950.174,96.107,573.981,570.096,0.0
55920.0,STARLINK-5862,PAYLOAD,2024-02-05 03:28:14,14.98329194,0.0002786,69.9995,49.8213,266.6513,93.4328,3.6567e-05,3.43e-06,0.0,0 STARLINK-5862,1 55920U 23037G   24036.14460994  .00000343  00000-0  36567-4 0  9999,2 55920  69.9995  49.8213 0002786 266.6513  93.4328 14.98329194 49944,6950.195,96.107,573.997,570.124,0.0
55920.0,STARLINK-5862,PAYLOAD,2024-02-05 11:28:54,14.98328978,0.0002806,69.9996,48.9794,268.3599,91.7238,2.9501e-05,2.59e-06,0.0,0 STARLINK-5862,1 55920U 23037G   24036.47841042  .00000259  00000-0  29501-4 0  9998,2 55920  69.9996  48.9794 0002806 268.3599  91.7238 14.98328978 49653,6950.196,96.107,574.011,570.111,0.0
55920.0,STARLINK-5862,PAYLOAD,2024-02-06 03:30:15,14.98331325,0.0002777,69.9997,47.2959,267.4332,92.6509,-3.6379e-05,-5.27e-06,0.0,0 STARLINK-5862,1 55920U 23037G   24037.14601024 -.00000527  00000-0 -36379-4 0  9998,2 55920  69.9997  47.2959 0002777 267.4332  92.6509 14.98331325 50092,6950.189,96.107,573.984,570.124,0.0
55920.0,STARLINK-5862,PAYLOAD,2024-02-06 09:54:47,14.98330805,0.0002789,69.9999,46.6227,267.8525,92.2315,-3.8647e-05,-5.54e-06,0.0,0 STARLINK-5862,1 55920U 23037G   24037.41305045 -.00000554  00000-0 -38647-4 0  9992,2 55920  69.9999  46.6227 0002789 267.8525  92.2315 14.98330805 49794,6950.19,96.107,573.994,570.117,0.0
55920.0,STARLINK-5862,PAYLOAD,2024-02-07 03:32:16,14.98329113,0.0002855,69.9998,44.7706,267.6445,92.4387,-3.5629e-07,-9.7e-07,0.0,0 STARLINK-5862,1 55920U 23037G   24038.14740971 -.00000097  00000-0 -35629-6 0  9995,2 55920  69.9998  44.7706 0002855 267.6445  92.4387 14.98329113 50240,6950.196,96.107,574.045,570.076,0.0
55920.0,STARLINK-5862,PAYLOAD,2024-02-07 09:56:48,14.98329965,0.0002831,69.9999,44.0974,267.4007,92.6828,1.1569e-05,4.5e-07,0.0,0 STARLINK-5862,1 55920U 23037G   24038.41444890  .00000045  00000-0  11569-4 0  9992,2 55920  69.9999  44.0974 0002831 267.4007  92.6828 14.98329965 49949,6950.193,96.107,574.026,570.09,0.0
55920.0,STARLINK-5862,PAYLOAD,2024-02-07 17:57:28,14.98326873,0.0002895,69.9999,43.2552,270.3598,89.7229,-2.0843e-05,-3.42e-06,0.0,0 STARLINK-5862,1 55920U 23037G   24038.74825191 -.00000342  00000-0 -20843-4 0  9992,2 55920  69.9999  43.2552 0002895 270.3598  89.7229 14.98326873 49992,6950.203,96.107,574.08,570.055,0.0
55920.0,STARLINK-5862,PAYLOAD,2024-02-08 03:34:17,14.98326014,0.0002969,69.9997,42.2456,271.0818,89.0001,-2.7697e-05,-4.23e-06,0.0,0 STARLINK-5862,1 55920U 23037G   24039.14881319 -.00000423  00000-0 -27697-4 0  9995,2 55920  69.9997  42.2456 0002969 271.0818  89.0001 14.98326014 50391,6950.205,96.107,574.134,570.007,0.0
55920.0,STARLINK-5862,PAYLOAD,2024-02-08 09:58:49,14.98328305,0.0002969,69.9998,41.5721,270.3862,89.6957,-1.8742e-06,-1.15e-06,0.0,0 STARLINK-5862,1 55920U 23037G   24039.41585140 -.00000115  00000-0 -18742-5 0  9998,2 55920  69.9998  41.5721 0002969 270.3862  89.6957 14.98328305 50098,6950.198,96.107,574.127,570.0,0.0
55920.0,STARLINK-5862,PAYLOAD,2024-02-09 03:36:18,14.98331024,0.0003002,69.9997,39.7205,270.3782,89.7033,6.2825e-06,-1.8e-07,0.0,0 STARLINK-5862,1 55920U 23037G   24040.15020956 -.00000018  00000-0  62825-5 0  9992,2 55920  69.9997  39.7205 0003002 270.3782  89.7033 14.98331024 50541,6950.19,96.107,574.141,569.968,0.0
55920.0,STARLINK-5862,PAYLOAD,2024-02-09 10:00:50,14.98333626,0.0002981,69.9998,39.0472,270.5251,89.5566,3.5863e-05,3.35e-06,0.0,0 STARLINK-5862,1 55920U 23037G   24040.41724678  .00000335  00000-0  35863-4 0  9995,2 55920  69.9998  39.0472 0002981 270.5251  89.5566 14.98333626 50245,6950.182,96.107,574.119,569.975,0.0
55920.0,STARLINK-5862,PAYLOAD,2024-02-10 03:38:19,14.98326279,0.0002967,70.0,37.1957,270.3978,89.6841,-1.3317e-06,-1.09e-06,0.0,0 STARLINK-5862,1 55920U 23037G   24041.15161267 -.00000109  00000-0 -13317-5 0  9998,2 55920  70.0000  37.1957 0002967 270.3978  89.6841 14.98326279 50699,6950.204,96.107,574.132,570.007,0.0
55920.0,STARLINK-5862,PAYLOAD,2024-02-10 10:02:51,14.98330176,0.0002867,70.0003,36.5237,267.9959,92.0872,3.7866e-05,3.59e-06,0.0,0 STARLINK-5862,1 55920U 23037G   24041.41864935  .00000359  00000-0  37866-4 0  9998,2 55920  70.0003  36.5237 0002867 267.9959  92.0872 14.98330176 50396,6950.192,96.107,574.05,570.065,0.0
55920.0,STARLINK-5862,PAYLOAD,2024-02-10 22:51:55,14.98330985,0.0002732,70.0005,35.1766,263.0491,97.0357,-7.0851e-06,-1.77e-06,0.0,0 STARLINK-5862,1 55920U 23037G   24041.95272979 -.00000177  00000-0 -70851-5 0  9990,2 55920  70.0005  35.1766 0002732 263.0491  97.0357 14.98330985 50479,6950.19,96.107,573.954,570.156,0.0
55920.0,STARLINK-5862,PAYLOAD,2024-02-11 05:16:28,14.98330715,0.0002723,70.0006,34.5034,263.4987,96.5862,-8.0428e-06,-1.89e-06,0.0,0 STARLINK-5862,1 55920U 23037G   24042.21976980 -.00000189  00000-0 -80428-5 0  9997,2 55920  70.0006  34.5034 0002723 263.4987  96.5862 14.98330715 50853,6950.191,96.107,573.948,570.163,0.0
55920.0,STARLINK-5862,PAYLOAD,2024-02-11 08:28:44,14.98331029,0.0002721,70.0007,34.1669,263.8225,96.2624,-4.3352e-06,-1.45e-06,0.0,0 STARLINK-5862,1 55920U 23037G   24042.35328944 -.00000145  00000-0 -43352-5 0  9990,2 55920  70.0007  34.1669 0002721 263.8225  96.2624 14.98331029 50538,6950.19,96.107,573.946,570.164,0.0
55920.0,STARLINK-5862,PAYLOAD,2024-02-11 22:53:56,14.98332457,0.000277,70.0006,32.6516,263.0269,97.0575,5.1586e-05,5.23e-06,0.0,0 STARLINK-5862,1 55920U 23037G   24042.95412571  .00000523  00000-0  51586-4 0  9991,2 55920  70.0006  32.6516 0002770 263.0269  97.0575 14.98332457 50625,6950.185,96.107,573.975,570.125,0.0
55920.0,STARLINK-5862,PAYLOAD,2024-02-12 10:06:52,14.98336525,0.0002763,70.0007,31.4731,260.8651,99.2195,8.6818e-05,9.43e-06,0.0,0 STARLINK-5862,1 55920U 23037G   24043.42144053  .00000943  00000-0  86818-4 0  9993,2 55920  70.0007  31.4731 0002763 260.8651  99.2195 14.98336525 51032,6950.173,96.107,573.958,570.117,0.0
55920.0,STARLINK-5862,PAYLOAD,2024-02-13 03:44:21,14.98326305,0.0002343,70.0022,29.6242,243.5907,116.5012,-6.2282e-06,-1.67e-06,0.0,0 STARLINK-5862,1 55920U 23037G   24044.15580999 -.00000167  00000-0 -62282-5 0  9997,2 55920  70.0022  29.6242 0002343 243.5907 116.5012 14.98326305 51149,6950.204,96.107,573.698,570.441,0.0
55920.0,STARLINK-5862,PAYLOAD,2024-02-13 08:32:46,14.9832212,0.0002493,70.0017,29.1175,253.8406,106.2479,-5.4564e-05,-7.44e-06,0.0,0 STARLINK-5862,1 55920U 23037G   24044.35609401 -.00000744  00000-0 -54564-4 0  9993,2 55920  70.0017  29.1175 0002493 253.8406 106.2479 14.98322120 50836,6950.217,96.108,573.815,570.35,0.0
55920.0,STARLINK-5862,PAYLOAD,2024-02-13 22:57:58,14.98331395,0.0003114,70.0001,27.6016,270.9379,89.1423,-2.6503e-05,-4.09e-06,0.0,0 STARLINK-5862,1 55920U 23037G   24044.95692752 -.00000409  00000-0 -26503-4 0  9990,2 55920  70.0001  27.6016 0003114 270.9379  89.1423 14.98331395 50928,6950.189,96.107,574.218,569.889,0.0
55920.0,STARLINK-5862,PAYLOAD,2024-02-14 05:22:30,14.98336413,0.0003044,70.0002,26.9277,268.8721,91.2089,3.8985e-05,3.72e-06,0.0,0 STARLINK-5862,1 55920U 23037G   24045.22396181  .00000372  00000-0  38985-4 0  9992,2 55920  70.0002  26.9277 0003044 268.8721  91.2089 14.98336413 51300,6950.173,96.107,574.154,569.922,0.0
55920.0,STARLINK-5862,PAYLOAD,2024-02-14 08:34:46,14.98338121,0.000298,70.0004,26.5907,268.8304,91.2514,7.6845e-05,8.24e-06,0.0,0 STARLINK-5862,1 55920U 23037G   24045.35747923  .00000824  00000-0  76845-4 0  9999,2 55920  70.0004  26.5907 0002980 268.8304  91.2514 14.98338121 50987,6950.168,96.106,574.104,569.962,0.0
